[{"OBJECT_NAME":"CORIOLIS","OBJECT_ID":"2003-001A","EPOCH":"2026-03-09T23:33:22.818240","MEAN_MOTION":14.19912866,"ECCENTRICITY":0.00147772,"INCLINATION":98.7161,"RA_OF_ASC_NODE":77.3702,"ARG_OF_PERICENTER":135.6934,"MEAN_ANOMALY":224.5428,"EPHEMERIS_TYPE":0,"CLASSIFICATION_TYPE":"U","NORAD_CAT_ID":27640,"ELEMENT_SET_NO":999,"REV_AT_EPOCH":20014,"BSTAR":0.00010579035,"MEAN_MOTION_DOT":1.81e-6,"MEAN_MOTION_DDOT":0},{"OBJECT_NAME":"NOAA 16 DEB","OBJECT_ID":"2000-055HZ","EPOCH":"2026-03-07T14:21:54.656064","MEAN_MOTION":14.22862655,"ECCENTRICITY":0.0038633,"INCLINATION":98.7489,"RA_OF_ASC_NODE":122.9786,"ARG_OF_PERICENTER":75.9218,"MEAN_ANOMALY":284.6249,"EPHEMERIS_TYPE":0,"CLASSIFICATION_TYPE":"U","NORAD_CAT_ID":41356,"ELEMENT_SET_NO":999,"REV_AT_EPOCH":52292,"BSTAR":0.0021184,"MEAN_MOTION_DOT":4.754e-5,"MEAN_MOTION_DDOT":0}]
